GLOBALSTAR M075         
1 37192U 10054E   23224.06363858 -.00000091  00000+0  71323-4 0  9994
2 37192  51.9949  77.1393 0000564  75.6972  89.4626 12.62260281591114
GLOBALSTAR M073         
1 37193U 10054F   23224.85848819 -.00000099  00000+0  26707-4 0  9991
2 37193  52.0074 348.0255 0000756 103.2335  74.8691 12.62266262592720
GLOBALSTAR M083         
1 37739U 11033A   23224.53890017 -.00000080  00000+0  12994-3 0  9999
2 37739  51.9850 298.6529 0000761 134.0314 331.8579 12.62268479562017
GLOBALSTAR M088         
1 37740U 11033B   23224.11017137 -.00000095  00000+0  48031-4 0  9997
2 37740  51.9704 206.0156 0000193 182.1177 254.5081 12.62264765557439
GLOBALSTAR M091         
1 37741U 11033C   23224.82455279 -.00000112  00000+0 -47380-4 0  9996
2 37741  51.9986 166.1884 0000066 101.5650 282.3647 12.62265518558284
GLOBALSTAR M085         
1 37742U 11033D   23223.78573170 -.00000113  00000+0 -49868-4 0  9996
2 37742  51.9858 120.9873 0000439  72.8354 329.0073 12.62266204558896
GLOBALSTAR M081         
1 37743U 11033E   23224.84125227 -.00000098  00000+0  29546-4 0  9993
2 37743  51.9954 120.1448 0000309  40.0257 359.8986 12.62270046559062
GLOBALSTAR M089         
1 37744U 11033F   23224.87496362 -.00000093  00000+0  59240-4 0  9997
2 37744  51.9933  74.3964 0000814  53.1923 320.0186 12.62266082559785
